STARLINK-5828           
1 57070U 23088Y   25017.87261393  .00000690  00000+0  66162-4 0  9993
2 57070  43.0014 194.4534 0000725 279.8424  80.2337 15.02534265 87060
STARLINK-5834           
1 57071U 23088Z   25017.86263025  .00000018  00000+0  16434-4 0  9998
2 57071  43.0018 194.3733 0001397 271.2615  88.8067 15.02533125 86763
STARLINK-5843           
1 57072U 23088AA  25017.46930946  .00001039  00000+0  91950-4 0  9998
2 57072  43.0027 196.5849 0001302 266.6128  93.4566 15.02538583 86926
STARLINK-5838           
1 57073U 23088AB  25017.47263614  .00001088  00000+0  95626-4 0  9999
2 57073  43.0017 196.6080 0001423 268.4375  91.6304 15.02539260 86925
STARLINK-5773           
1 57074U 23088AC  25017.79800787  .00002284  00000+0  18422-3 0  9990
2 57074  43.0062 206.8970 0001757 277.3142  82.7500 15.02519487 86916
STARLINK-5542           
1 57075U 23088AD  25017.85040920  .00001186  00000+0  10286-3 0  9993
2 57075  43.0008 194.2839 0001313 276.1285  83.9408 15.02541032 87062
STARLINK-6155           
1 57076U 23088AE  25017.79947685  .00001065  00000+0  93869-4 0  9996
2 57076  43.0009 194.7621 0001232 268.5569  91.5132 15.02535777 87055
STARLINK-6194           
1 57077U 23088AF  25017.45710004  .00000991  00000+0  88407-4 0  9992
2 57077  43.0022 196.4922 0001567 261.2246  98.8418 15.02535913 88079
STARLINK-6246           
1 57078U 23088AG  25017.86484624  .00000703  00000+0  67102-4 0  9994
2 57078  43.0025 194.3919 0001216 269.7813  90.2890 15.02525308 87065
STARLINK-6245           
1 57079U 23088AH  25017.18008818  .00000518  00000+0  53443-4 0  9994
2 57079  43.0023 197.8550 0001231 270.0270  90.0431 15.02533786 87868
STARLINK-6243           
1 57080U 23088AJ  25017.79283572  .00001582  00000+0  13218-3 0  9992
2 57080  43.0016 194.7094 0001309 268.2592  91.8100 15.02537297 87046
STARLINK-6184           
1 57081U 23088AK  25017.17675970 -.00000086  00000+0  87100-5 0  9994
2 57081  43.0021 197.8231 0001087 265.6903  94.3815 15.02532408 87860
STARLINK-6248           
1 57082U 23088AL  25017.78171900 -.00001446  00000+0 -91974-4 0  9991
2 57082  43.0023 194.6228 0001363 266.3535  93.7152 15.02554267 87044
STARLINK-6253           
1 57083U 23088AM  25017.83375954  .00001979  00000+0  16150-3 0  9994
2 57083  43.0013 194.1563 0001163 270.8128  89.2581 15.02542593 87053
STARLINK-6240           
1 57084U 23088AN  25017.17786725  .00001078  00000+0  94893-4 0  9995
2 57084  43.0018 197.8325 0001604 277.0095  83.0565 15.02538541 87868
STARLINK-6232           
1 57085U 23088AP  25017.82932894  .00000997  00000+0  88875-4 0  9990
2 57085  43.0013 194.1204 0001218 270.6880  89.3823 15.02534823 87058
STARLINK-6247           
1 57086U 23088AQ  25017.83931482  .00001335  00000+0  11383-3 0  9990
2 57086  43.0004 194.1944 0001481 271.3637  88.7036 15.02549663 87057
STARLINK-6251           
1 57087U 23088AR  25016.23053056  .00000210  00000+0  30636-4 0  9990
2 57087  43.0018 202.7624 0000997 265.5537  94.5191 15.02534360 86817
STARLINK-6257           
1 57088U 23088AS  25017.50359647 -.00000015  00000+0  13941-4 0  9991
2 57088  43.0014 195.9745 0001076 263.4047  96.6673 15.02535174 87917
STARLINK-6259           
1 57089U 23088AT  25017.74953056  .00001017  00000+0  90332-4 0  9993
2 57089  43.0027 194.3846 0001246 268.0393  92.0306 15.02536474 87042
STARLINK-6254           
1 57090U 23088AU  25017.22658836 -.00000429  00000+0 -16654-4 0  9999
2 57090  43.0023 197.3363 0001386 253.7957 106.2733 15.02538457 87875
STARLINK-6262           
1 57091U 23088AV  25017.55342683  .00000312  00000+0  38166-4 0  9997
2 57091  43.0011 195.4883 0001162 271.0048  89.0661 15.02537835 87928
STARLINK-6225           
1 57092U 23088AW  25017.55564901 -.00000071  00000+0  98045-5 0  9993
2 57092  43.0011 195.5052 0001053 267.6078  92.4644 15.02534678 87922
STARLINK-6229           
1 57093U 23088AX  25017.48029166  .00000083  00000+0  21216-4 0  9992
2 57093  43.0016 195.8034 0001093 268.8654  91.2063 15.02533327 87919
STARLINK-6235           
1 57094U 23088AY  25017.87806514 -.00001513  00000+0 -96989-4 0  9996
2 57094  43.0018 193.6255 0001274 278.8641  81.2057 15.02521758 87064
STARLINK-6132           
1 57101U 23090A   25017.30368034  .00000511  00000+0  52895-4 0  9999
2 57101  42.9947  17.5587 0000334 161.2850 198.8004 15.02532066 87776
STARLINK-6111           
1 57102U 23090B   25017.36460782  .00000797  00000+0  74097-4 0  9993
2 57102  43.0052  17.1617 0001326 274.6387  85.4303 15.02535660 87789
STARLINK-6130           
1 57104U 23090D   25017.69921482  .00000910  00000+0  82426-4 0  9992
2 57104  43.0052  15.3712 0001424 270.7910  89.2770 15.02535644 86696
STARLINK-6097           
1 57105U 23090E   25017.69588433  .00000021  00000+0  16657-4 0  9994
2 57105  43.0046  15.3472 0001410 276.4873  83.5809 15.02552997 86699
STARLINK-6118           
1 57106U 23090F   25017.29147458  .00000413  00000+0  45663-4 0  9993
2 57106  43.0041  17.4710 0000778 264.1129  95.9625 15.02531016 87779
STARLINK-6131           
1 57107U 23090G   25017.01223704  .00000247  00000+0  33378-4 0  9998
2 57107  43.0057  18.8141 0001293 265.9296  94.1399 15.02535478 87738
STARLINK-6099           
1 57108U 23090H   25017.69255735  .00000121  00000+0  23996-4 0  9998
2 57108  43.0043  15.3217 0001043 268.6776  91.3947 15.02538233 86690
STARLINK-6139           
1 57109U 23090J   25017.28369745 -.00000176  00000+0  20422-5 0  9994
2 57109  43.0044  17.4098 0001110 259.3584 100.7133 15.02528511 87771
STARLINK-6134           
1 57110U 23090K   25017.69371882 -.00004065  00000+0 -28635-3 0  9990
2 57110  43.0054  15.3302 0000941 279.7415  80.3321 15.02492115 86691
STARLINK-6140           
1 57111U 23090L   25017.67035513  .00000244  00000+0  33113-4 0  9998
2 57111  43.0072  15.1514 0001146 267.8280  92.2431 15.02538344 86690
STARLINK-6141           
1 57112U 23090M   25017.28813850  .00000451  00000+0  48432-4 0  9994
2 57112  43.0069  17.4463 0001316 268.3895  91.6797 15.02535160 87773
STARLINK-6142           
1 57113U 23090N   25017.67590505  .00001073  00000+0  94483-4 0  9995
2 57113  43.0044  15.1952 0001207 268.9196  91.1508 15.02539965 86696
STARLINK-6125           
1 57114U 23090P   25017.67257646  .00002746  00000+0  21822-3 0  9996
2 57114  43.0057  15.1687 0001239 269.8559  90.2142 15.02545020 86697
STARLINK-6085           
1 57115U 23090Q   25017.00224837 -.00000002  00000+0  14963-4 0  9993
2 57115  43.0061  18.7407 0001793 265.5956  94.4682 15.02536169 87736
STARLINK-6129           
1 57116U 23090R   25017.01445869  .00000808  00000+0  74908-4 0  9993
2 57116  43.0043  18.8319 0001140 271.8414  88.2298 15.02532604 87739
STARLINK-6148           
1 57117U 23090S   25017.33131560 -.00000080  00000+0  91110-5 0  9997
2 57117  43.0037  16.9047 0000677 266.6400  93.4364 15.02529114 86644
STARLINK-6151           
1 57118U 23090T   25017.33685863  .00000235  00000+0  32461-4 0  9992
2 57118  43.0033  16.9463 0001321 253.1953 106.8745 15.02531538 87785
STARLINK-6150           
1 57119U 23090U   25017.26038894  .00001281  00000+0  10989-3 0  9993
2 57119  43.0062  17.2343 0000890 263.1898  96.8844 15.02537100 87776
STARLINK-6147           
1 57120U 23090V   25017.06762140  .00001614  00000+0  13450-3 0  9997
2 57120  43.0034  18.3668 0000985 257.6219 102.4513 15.02530955 86608
STARLINK-6152           
1 57121U 23090W   25017.05208175 -.00000024  00000+0  13312-4 0  9993
2 57121  43.0029  18.2506 0000991 273.1446  86.9283 15.02533730 87554
STARLINK-6149           
1 57122U 23090X   25017.25706644 -.00001437  00000+0 -91351-4 0  9999
2 57122  43.0049  17.2100 0001274 274.5617  85.5080 15.02524160 87777
STARLINK-6154           
1 57123U 23090Y   25017.04874532  .00000467  00000+0  49609-4 0  9998
2 57123  43.0060  18.2251 0001236 262.1765  97.8938 15.02536948 87555
STARLINK-6146           
1 57124U 23090Z   25017.25484730  .00000318  00000+0  38624-4 0  9999
2 57124  43.0046  17.1923 0001166 271.1358  88.9351 15.02535053 87774
STARLINK-6100           
1 57125U 23090AA  25017.23412488  .00000146  00000+0  25877-4 0  9994
2 57125  43.0039   4.8786 0000837 264.1037  95.9710 15.02538766 87723
STARLINK-6167           
1 57126U 23090AB  25017.25374257 -.00003877  00000+0 -27212-3 0  9998
2 57126  43.0031  17.1817 0001141 273.3818  86.6894 15.02526907 87775
STARLINK-6165           
1 57127U 23090AC  25017.70908490  .00001215  00000+0  10500-3 0  9995
2 57127  43.0070  14.5825 0001231 267.6622  92.4080 15.02536633 86709
STARLINK-6163           
1 57128U 23090AD  25017.71574390  .00001570  00000+0  13125-3 0  9995
2 57128  43.0025  14.6269 0001145 279.4724  80.5989 15.02537981 86704
STARLINK-6170           
1 57129U 23090AE  25017.31503293 -.00000123  00000+0  59743-5 0  9998
2 57129  43.0074   4.6312 0001244 265.5671  94.5029 15.02535953 87735
STARLINK-6172           
1 57130U 23090AF  25017.04541847  .00000629  00000+0  61621-4 0  9994
2 57130  43.0042  18.1996 0001388 275.3093  84.7591 15.02533232 87559
STARLINK-6162           
1 57131U 23090AG  25017.24411595 -.00000949  00000+0 -55200-4 0  9996
2 57131  43.0053   4.9584 0001096 285.2608  74.8113 15.02536664 87727
STARLINK-6128           
1 57132U 23090AH  25017.30467197  .00000817  00000+0  75505-4 0  9995
2 57132  43.0027  16.7061 0000819 273.7465  86.3284 15.02536725 87595
STARLINK-6143           
1 57133U 23090AJ  25017.23079667  .00000401  00000+0  44746-4 0  9991
2 57133  43.0048   4.8539 0001208 266.9919  93.0785 15.02536783 87728
STARLINK-6133           
1 57134U 23090AK  25017.64408881  .00000777  00000+0  72606-4 0  9993
2 57134  43.0044   2.7939 0001164 268.2655  91.8054 15.02541196 86839
STARLINK-6127           
1 57135U 23090AL  25017.22080803  .00000723  00000+0  68554-4 0  9996
2 57135  43.0034   4.7771 0000881 261.7898  98.2845 15.02536077 87727
